QIANFAN-1               
1 60379U 24140A   25336.24951926  .00000093  00000+0  12557-3 0  9997
2 60379  88.9748 300.3665 0015587 243.7514 116.2036 13.50975738 65936
QIANFAN-2               
1 60380U 24140B   25336.27854239  .00000075  00000+0  97052-4 0  9995
2 60380  88.9734 300.2043 0011359 211.0521 148.9960 13.50979253 65991
QIANFAN-3               
1 60381U 24140C   25336.21264669  .00000083  00000+0  10942-3 0  9993
2 60381  88.9726 300.3446 0012202 226.0190 133.9956 13.50979816 65890
QIANFAN-4               
1 60382U 24140D   25336.18782701  .00000078  00000+0  10259-3 0  9997
2 60382  88.9751 300.2421 0011520 214.3879 145.6528 13.50979980 66019
QIANFAN-5               
1 60383U 24140E   25336.23731741  .00000088  00000+0  11802-3 0  9998
2 60383  88.9726 300.3674 0013301 239.0762 120.9082 13.50977443 65884
QIANFAN-6               
1 60384U 24140F   25336.25791342  .00000072  00000+0  92315-4 0  9996
2 60384  88.9753 300.1086 0011514 220.9128 139.1160 13.50977938 66080
QIANFAN-7               
1 60385U 24140G   25336.23110692  .00000783  00000+0  31181-3 0  9990
2 60385  88.9769 294.9555 0017382  76.0787 284.2339 14.27626244 68896
QIANFAN-8               
1 60386U 24140H   25336.26615365  .00000091  00000+0  12296-3 0  9999
2 60386  88.9754 300.3451 0014910 224.5484 135.4470 13.50975936 65931
